NORAD_CAT_ID,OBJECT_NAME,OBJECT_TYPE,EPOCH,MEAN_MOTION,ECCENTRICITY,INCLINATION,RA_OF_ASC_NODE,ARG_OF_PERICENTER,MEAN_ANOMALY,BSTAR,MEAN_MOTION_DOT,MEAN_MOTION_DDOT,TLE_LINE0,TLE_LINE1,TLE_LINE2,SEMIMAJOR_AXIS,PERIOD,APOGEE,PERIGEE,DECAYED
54202.0,STARLINK-5205,PAYLOAD,2024-05-19 01:55:04,15.08851782,0.000126,53.2174,74.9059,81.9042,278.2093,0.0003621,5.481e-05,0.0,0 STARLINK-5205,1 54202U 22141AX  24140.07991233  .00005481  00000-0  36210-3 0  9991,2 54202  53.2174  74.9059 0001260  81.9042 278.2093 15.08851782 86420,6917.844,95.437,540.581,538.838,0.0
54202.0,STARLINK-5205,PAYLOAD,2024-05-19 19:24:19,15.08840478,0.0002159,53.2159,71.6358,82.7861,277.3376,0.00016728,2.375e-05,0.0,0 STARLINK-5205,1 54202U 22141AX  24140.80855979  .00002375  00000-0  16728-3 0  9999,2 54202  53.2159  71.6358 0002159  82.7861 277.3376 15.08840478 86766,6917.879,95.438,541.237,538.25,0.0
54202.0,STARLINK-5205,PAYLOAD,2024-05-20 04:56:38,15.08837052,0.0001837,53.2174,69.8471,92.1336,267.9867,3.5787e-05,2.81e-06,0.0,0 STARLINK-5205,1 54202U 22141AX  24141.20600042  .00000281  00000-0  35787-4 0  9994,2 54202  53.2174  69.8471 0001837  92.1336 267.9867 15.08837052 86597,6917.889,95.438,541.025,538.484,0.0
54202.0,STARLINK-5205,PAYLOAD,2024-05-20 19:15:07,15.08829453,0.0001821,53.2173,67.1718,103.6567,256.4628,-3.2871e-05,-8.11e-06,0.0,0 STARLINK-5205,1 54202U 22141AX  24141.80216597 -.00000811  00000-0 -32871-4 0  9990,2 54202  53.2173  67.1718 0001821 103.6567 256.4628 15.08829453 86918,6917.913,95.438,541.037,538.518,0.0
54202.0,STARLINK-5205,PAYLOAD,2024-05-21 01:36:39,15.08838113,0.0001975,53.2175,65.9861,109.0649,251.0557,7.3179e-05,8.77e-06,0.0,0 STARLINK-5205,1 54202U 22141AX  24142.06712266  .00000877  00000-0  73179-4 0  9999,2 54202  53.2175  65.9861 0001975 109.0649 251.0557 15.08838113 86955,6917.886,95.438,541.117,538.385,0.0
54202.0,STARLINK-5205,PAYLOAD,2024-05-21 22:16:40,15.08842085,0.0001954,53.2181,62.1216,117.8724,242.2467,0.00032596,4.904e-05,0.0,0 STARLINK-5205,1 54202U 22141AX  24142.92824638  .00004904  00000-0  32596-3 0  9993,2 54202  53.2181  62.1216 0001954 117.8724 242.2467 15.08842085 86857,6917.874,95.437,541.091,538.387,0.0
54202.0,STARLINK-5205,PAYLOAD,2024-05-22 01:27:26,15.08846972,0.0001778,53.2187,61.5267,107.9888,252.1298,0.00039674,6.033e-05,0.0,0 STARLINK-5205,1 54202U 22141AX  24143.06072558  .00006033  00000-0  39674-3 0  9994,2 54202  53.2187  61.5267 0001778 107.9888 252.1298 15.08846972 86870,6917.859,95.437,540.954,538.494,0.0
54202.0,STARLINK-5205,PAYLOAD,2024-05-22 23:42:50,15.08843452,0.0001698,53.2183,57.3623,107.2963,252.8215,0.00010319,1.355e-05,0.0,0 STARLINK-5205,1 54202U 22141AX  24143.98808498  .00001355  00000-0  10319-3 0  9992,2 54202  53.2183  57.3623 0001698 107.2963 252.8215 15.08843452 87241,6917.87,95.437,540.909,538.56,0.0
54202.0,STARLINK-5205,PAYLOAD,2024-05-24 04:19:46,15.08852862,0.0001632,53.2179,52.0075,113.6656,246.4507,9.5815e-05,1.238e-05,0.0,0 STARLINK-5205,1 54202U 22141AX  24145.18039857  .00001238  00000-0  95815-4 0  9996,2 54202  53.2179  52.0075 0001632 113.6656 246.4507 15.08852862 87425,6917.841,95.437,540.835,538.577,0.0
54202.0,STARLINK-5205,PAYLOAD,2024-05-24 18:38:15,15.08832313,0.0001239,53.2187,49.3348,74.6613,285.4516,-2.9659e-05,-7.6e-06,0.0,0 STARLINK-5205,1 54202U 22141AX  24145.77657102 -.00000760  00000-0 -29659-4 0  9994,2 54202  53.2187  49.3348 0001239  74.6613 285.4516 15.08832313 87510,6917.904,95.438,540.626,538.912,0.0
54202.0,STARLINK-5205,PAYLOAD,2024-05-24 21:49:01,15.08834359,0.0001394,53.2179,48.7415,83.463,276.6521,-1.33e-06,-3.09e-06,0.0,0 STARLINK-5205,1 54202U 22141AX  24145.90905061 -.00000309  00000-0 -13300-5 0  9995,2 54202  53.2179  48.7415 0001394  83.4630 276.6521 15.08834359 87305,6917.898,95.438,540.727,538.798,0.0
54202.0,STARLINK-5205,PAYLOAD,2024-05-25 02:35:11,15.08840153,0.0001449,53.2176,47.8459,81.9013,278.2143,7.0489e-05,8.34e-06,0.0,0 STARLINK-5205,1 54202U 22141AX  24146.10776776  .00000834  00000-0  70489-4 0  9998,2 54202  53.2176  47.8459 0001449  81.9013 278.2143 15.08840153 87564,6917.88,95.438,540.747,538.743,0.0
54202.0,STARLINK-5205,PAYLOAD,2024-05-25 10:32:06,15.0883587,0.000114,53.2174,46.3619,75.1281,284.9837,3.0265e-05,1.94e-06,0.0,0 STARLINK-5205,1 54202U 22141AX  24146.43896954  .00000194  00000-0  30265-4 0  9992,2 54202  53.2174  46.3619 0001140  75.1281 284.9837 15.08835870 87388,6917.893,95.438,540.547,538.969,0.0
54202.0,STARLINK-5205,PAYLOAD,2024-05-26 00:50:35,15.08845276,0.0001308,53.2178,43.6861,79.4018,280.7121,5.3714e-05,5.67e-06,0.0,0 STARLINK-5205,1 54202U 22141AX  24147.03512831  .00000567  00000-0  53714-4 0  9996,2 54202  53.2178  43.6861 0001308  79.4018 280.7121 15.08845276 87473,6917.864,95.437,540.634,538.824,0.0
54202.0,STARLINK-5205,PAYLOAD,2024-05-26 23:05:58,15.08846722,0.0001249,53.2169,39.5241,73.4972,286.6158,0.00020423,2.965e-05,0.0,0 STARLINK-5205,1 54202U 22141AX  24147.96248810  .00002965  00000-0  20423-3 0  9995,2 54202  53.2169  39.5241 0001249  73.4972 286.6158 15.08846722 87849,6917.86,95.437,540.589,538.861,0.0
54202.0,STARLINK-5205,PAYLOAD,2024-05-26 23:05:59,15.08844709,0.0001253,53.2172,39.5236,80.6369,279.4765,0.00014719,2.056e-05,0.0,0 STARLINK-5205,1 54202U 22141AX  24147.96248885  .00002056  00000-0  14719-3 0  9999,2 54202  53.2172  39.5236 0001253  80.6369 279.4765 15.08844709 87614,6917.866,95.437,540.598,538.864,0.0
54202.0,STARLINK-5205,PAYLOAD,2024-05-27 10:13:40,15.08847143,0.0001077,53.2169,37.4448,51.0216,309.0872,0.0001396,1.935e-05,0.0,0 STARLINK-5205,1 54202U 22141AX  24148.42616410  .00001935  00000-0  13960-3 0  9996,2 54202  53.2169  37.4448 0001077  51.0216 309.0872 15.08847143 87680,6917.859,95.437,540.469,538.979,0.0
54202.0,STARLINK-5205,PAYLOAD,2024-05-28 02:07:31,15.08846866,0.000138,53.2187,34.4643,101.4458,258.6689,6.1338e-05,6.89e-06,0.0,0 STARLINK-5205,1 54202U 22141AX  24149.08856465  .00000689  00000-0  61338-4 0  9993,2 54202  53.2187  34.4643 0001380 101.4458 258.6689 15.08846866 88013,6917.859,95.437,540.679,538.77,0.0
54202.0,STARLINK-5205,PAYLOAD,2024-05-28 19:36:46,15.08839296,0.0001502,53.2185,31.1904,102.7362,257.3798,1.4454e-05,-5.8e-07,0.0,0 STARLINK-5205,1 54202U 22141AX  24149.81720945 -.00000058  00000-0  14454-4 0  9995,2 54202  53.2185  31.1904 0001502 102.7362 257.3798 15.08839296 88127,6917.883,95.438,540.787,538.708,0.0
54202.0,STARLINK-5205,PAYLOAD,2024-05-28 21:12:09,15.08839894,0.0001506,53.2187,30.8931,100.5937,259.5225,1.1989e-05,-9.7e-07,0.0,0 STARLINK-5205,1 54202U 22141AX  24149.88344895 -.00000097  00000-0  11989-4 0  9991,2 54202  53.2187  30.8931 0001506 100.5937 259.5225 15.08839894 87901,6917.881,95.438,540.788,538.704,0.0
54202.0,STARLINK-5205,PAYLOAD,2024-05-28 22:47:33,15.08839534,0.0001453,53.2188,30.596,93.7649,266.351,1.3425e-06,-2.67e-06,0.0,0 STARLINK-5205,1 54202U 22141AX  24149.94968952 -.00000267  00000-0  13425-5 0  9991,2 54202  53.2188  30.5960 0001453  93.7649 266.3510 15.08839534 87910,6917.882,95.438,540.752,538.742,0.0
54202.0,STARLINK-5205,PAYLOAD,2024-05-29 21:02:57,15.08838738,0.0001409,53.2185,26.4327,91.5062,268.6091,5.4672e-05,5.82e-06,0.0,0 STARLINK-5205,1 54202U 22141AX  24150.87704977  .00000582  00000-0  54672-4 0  9997,2 54202  53.2185  26.4327 0001409  91.5062 268.6091 15.08838738 88289,6917.884,95.438,540.724,538.775,0.0
54202.0,STARLINK-5205,PAYLOAD,2024-05-29 22:38:20,15.08838717,0.0001409,53.2187,26.135,92.8627,267.2527,7.3964e-05,8.89e-06,0.0,0 STARLINK-5205,1 54202U 22141AX  24150.94328898  .00000889  00000-0  73964-4 0  9994,2 54202  53.2187  26.1350 0001409  92.8627 267.2527 15.08838717 88067,6917.884,95.438,540.724,538.775,0.0
54202.0,STARLINK-5205,PAYLOAD,2024-05-30 20:53:43,15.0884339,0.000143,53.2189,21.9782,96.4648,263.6507,0.00011766,1.585e-05,0.0,0 STARLINK-5205,1 54202U 22141AX  24151.87064674  .00001585  00000-0  11766-3 0  9991,2 54202  53.2189  21.9782 0001430  96.4648 263.6507 15.08843390 88205,6917.87,95.437,540.724,538.746,0.0
54202.0,STARLINK-5205,PAYLOAD,2024-05-31 20:44:30,15.08843689,0.0001359,53.2186,17.521,99.9844,260.1302,8.3687e-05,1.044e-05,0.0,0 STARLINK-5205,1 54202U 22141AX  24152.86424680  .00001044  00000-0  83687-4 0  9990,2 54202  53.2186  17.5210 0001359  99.9844 260.1302 15.08843689 88582,6917.869,95.437,540.674,538.794,0.0
54202.0,STARLINK-5205,PAYLOAD,2024-06-01 07:52:13,15.08833421,0.0001365,53.218,15.4385,93.5603,266.5546,0.00017801,2.546e-05,0.0,0 STARLINK-5205,1 54202U 22141AX  24153.32793154  .00002546  00000-0  17801-3 0  9999,2 54202  53.2180  15.4385 0001365  93.5603 266.5546 15.08833421 88657,6917.9,95.438,540.71,538.821,0.0
54202.0,STARLINK-5205,PAYLOAD,2024-06-02 14:04:33,15.0883443,0.0001318,53.2193,9.7854,82.5254,277.5887,2.9961e-05,1.89e-06,0.0,0 STARLINK-5205,1 54202U 22141AX  24154.58649601  .00000189  00000-0  29961-4 0  9997,2 54202  53.2193   9.7854 0001318  82.5254 277.5887 15.08834430 88613,6917.897,95.438,540.674,538.851,0.0
54202.0,STARLINK-5205,PAYLOAD,2024-06-02 20:26:05,15.08838969,0.0001289,53.2181,8.5966,82.546,277.5678,5.6245e-05,6.07e-06,0.0,0 STARLINK-5205,1 54202U 22141AX  24154.85145251  .00000607  00000-0  56245-4 0  9999,2 54202  53.2181   8.5966 0001289  82.5460 277.5678 15.08838969 88885,6917.884,95.438,540.64,538.857,0.0
54202.0,STARLINK-5205,PAYLOAD,2024-06-03 07:33:47,15.0884128,0.0001474,53.219,6.5166,82.0744,278.0415,7.8525e-05,9.62e-06,0.0,0 STARLINK-5205,1 54202U 22141AX  24155.31513223  .00000962  00000-0  78525-4 0  9998,2 54202  53.2190   6.5166 0001474  82.0744 278.0415 15.08841280 88729,6917.876,95.437,540.761,538.722,0.0
54202.0,STARLINK-5205,PAYLOAD,2024-06-03 20:16:52,15.08842477,0.0001536,53.2183,4.1367,83.3831,276.7336,0.00022375,3.275e-05,0.0,0 STARLINK-5205,1 54202U 22141AX  24155.84504815  .00003275  00000-0  22375-3 0  9994,2 54202  53.2183   4.1367 0001536  83.3831 276.7336 15.08842477 88803,6917.873,95.437,540.8,538.675,0.0
